{
  "last_updated": "2026-04-17T12:48:12.406823",
  "satellites": {
    "98592": {
      "name": "DUTHSat-2",
      "norad_id": "98592",
      "tle": "1 64530U 25135C   26106.30084881  .00006866  00000-0  27427-3 0  9992\n2 64530  97.4541 222.3368 0005464  59.4697 300.7080 15.25445721 45491",
      "epoch": "2026-04-16T07:13:13.337184",
      "fetched_at": "2026-04-17T12:48:12.726692",
      "source": "satnogs"
    },
    "98530": {
      "name": "LAMARR",
      "norad_id": "98530",
      "tle": "1 66673U 25276H   26026.90917087  .00034524  00000-0  16680-2 0  9998\n2 66673  97.4301 102.8338 0007597 141.5941 218.5835 15.18529012  8972",
      "epoch": "2026-01-26T21:49:12.363168",
      "fetched_at": "2026-01-28T06:00:02.884758",
      "source": "satnogs",
      "note": "Using previous TLE (fetch/manual failed today)"
    },
    "98529": {
      "name": "DIRAC",
      "norad_id": "98529",
      "tle": "1 66681U 25276R   26026.63281774  .00024563  00000-0  11745-2 0  9993\n2 66681  97.4280 102.5712 0006320 148.4115 211.7500 15.18972786  8932",
      "epoch": "2026-01-26T15:11:15.452736",
      "fetched_at": "2026-01-28T06:00:02.937152",
      "source": "satnogs",
      "note": "Using previous TLE (fetch/manual failed today)"
    },
    "98518": {
      "name": "MICE-1",
      "norad_id": "98518",
      "tle": "1 66684U 25276U   26106.45287256  .00002075  00000-0  10312-3 0  9990\n2 66684  97.4294 181.1232 0005133 192.1075 168.0036 15.18748039 21049",
      "epoch": "2026-04-16T10:52:08.189184",
      "fetched_at": "2026-04-17T12:48:12.871167",
      "source": "satnogs"
    },
    "68416": {
      "name": "PeakSat",
      "norad_id": "68416",
      "tle": "1 68416U 26067A   26106.83110658  .00004832  00000-0  23633-3 0  9990\n2 68416  97.4501  66.2346 0004010 109.4945 250.6723 15.18674017  2633",
      "epoch": "2026-04-16T19:56:47.608512",
      "fetched_at": "2026-04-17T12:48:12.917130",
      "source": "satnogs"
    },
    "98370": {
      "name": "OptiSat",
      "norad_id": "98370",
      "tle": "1 69696U 69696    26089.46895426  .00000000  00000-0  00000-0 0 00004\n2 69696 097.4414 038.3720 0003145 156.7651 191.1423 15.18459822000011",
      "epoch": "2026-03-30T11:15:17.648064",
      "fetched_at": "2026-04-17T12:47:18.541523",
      "source": "manual"
    },
    "68468": {
      "name": "ERMIS-1",
      "norad_id": "68468",
      "tle": "1 68468U 26067BE  26106.85388171  .00005408  00000-0  27934-3 0  9994\n2 68468  97.4517  66.2080 0004727 272.4045  87.6647 15.16702498  2635",
      "epoch": "2026-04-16T20:29:35.379744",
      "fetched_at": "2026-04-17T12:48:12.961341",
      "source": "satnogs"
    },
    "68420": {
      "name": "ERMIS-2",
      "norad_id": "68420",
      "tle": "1 68420U 26067E   26106.83217994  .00006429  00000-0  31378-3 0  9995\n2 68420  97.4442  66.2220 0003669  93.3123 266.8531 15.18621293  2635",
      "epoch": "2026-04-16T19:58:20.346816",
      "fetched_at": "2026-04-17T12:48:13.006361",
      "source": "satnogs"
    },
    "98367": {
      "name": "ERMIS-3",
      "norad_id": "98367",
      "tle": "1 68425U 26067K   26106.83635307  .00003358  00000-0  16761-3 0  9999\n2 68425  97.4544  66.2367 0002387 131.5727 228.5712 15.18182792  2638",
      "epoch": "2026-04-16T20:04:20.905248",
      "fetched_at": "2026-04-17T12:48:13.072094",
      "source": "satnogs"
    }
  },
  "fetch_log": []
}